{
    "links": {
        "self": "http://www.neowsapp.com/rest/v1/neo/3392450?api_key=iIulBulltgU6a56xZRHN4H3l9WmuAYTsLGpBGhQ2"
    },
    "id": "3392450",
    "neo_reference_id": "3392450",
    "name": "(2007 VJ8)",
    "designation": "2007 VJ8",
    "nasa_jpl_url": "http://ssd.jpl.nasa.gov/sbdb.cgi?sstr=3392450",
    "absolute_magnitude_h": 24.9,
    "estimated_diameter": {
        "kilometers": {
            "estimated_diameter_min": 0.0278326768,
            "estimated_diameter_max": 0.0622357573
        },
        "meters": {
            "estimated_diameter_min": 27.8326768072,
            "estimated_diameter_max": 62.2357573367
        },
        "miles": {
            "estimated_diameter_min": 0.0172944182,
            "estimated_diameter_max": 0.0386714948
        },
        "feet": {
            "estimated_diameter_min": 91.3145593761,
            "estimated_diameter_max": 204.1855621004
        }
    },
    "is_potentially_hazardous_asteroid": false,
    "close_approach_data": [
        {
            "close_approach_date": "2007-11-12",
            "close_approach_date_full": "2007-Nov-12 10:47",
            "epoch_date_close_approach": 1194864420000,
            "relative_velocity": {
                "kilometers_per_second": "5.6413436589",
                "kilometers_per_hour": "20308.8371719037",
                "miles_per_hour": "12619.1216305087"
            },
            "miss_distance": {
                "astronomical": "0.1308161119",
                "lunar": "50.8874675291",
                "kilometers": "19569811.701921653",
                "miles": "12160117.1194506914"
            },
            "orbiting_body": "Earth"
        }
    ],
    "orbital_data": {
        "orbit_id": "10",
        "orbit_determination_date": "2017-04-06 09:05:19",
        "first_observation_date": "2007-11-05",
        "last_observation_date": "2007-12-05",
        "data_arc_in_days": 30,
        "observations_used": 21,
        "orbit_uncertainty": "8",
        "minimum_orbit_intersection": ".13009",
        "jupiter_tisserand_invariant": "2.991",
        "epoch_osculation": "2454421.5",
        "eccentricity": ".6097109486419057",
        "semi_major_axis": "2.868179015127351",
        "inclination": ".3589658966336427",
        "ascending_node_longitude": "236.2227464479146",
        "orbital_period": "1774.221377991469",
        "perihelion_distance": "1.119418866939247",
        "perihelion_argument": "176.6339637155824",
        "aphelion_distance": "4.616939163315455",
        "perihelion_time": "2454419.296919008381",
        "mean_anomaly": ".4470181493814994",
        "mean_motion": ".2029059081722614",
        "equinox": "J2000",
        "orbit_class": {
            "orbit_class_type": "AMO",
            "orbit_class_description": "Near-Earth asteroid orbits similar to that of 1221 Amor",
            "orbit_class_range": "1.017 AU < q (perihelion) < 1.3 AU"
        }
    },
    "is_sentry_object": false
}